IRIDIUM 166             
1 43570U 18061B   24098.35243835  .00000224  00000+0  73051-4 0  9998
2 43570  86.4012  31.4010 0002435  80.5826 279.5645 14.34218872298618
IRIDIUM 158             
1 43571U 18061C   24098.53002939  .00000372  00000+0  12582-3 0  9992
2 43571  86.4012  31.3361 0002204  79.9615 280.1829 14.34218454298617
IRIDIUM 165             
1 43572U 18061D   24097.57864008  .00000116  00000+0  34534-4 0  9997
2 43572  86.4012  31.7645 0002222  78.2731 281.8714 14.34217394298497
IRIDIUM 155             
1 43573U 18061E   24097.54060319  .00000339  00000+0  11416-3 0  9998
2 43573  86.4008  31.6891 0002418  84.0575 276.0897 14.34216624298452
IRIDIUM 154             
1 43574U 18061F   24098.35877549  .00000311  00000+0  10402-3 0  9994
2 43574  86.4014  31.4417 0002017  88.8937 271.2490 14.34209883298625
IRIDIUM 163             
1 43575U 18061G   24098.26996987  .00000031  00000+0  38680-5 0  9992
2 43575  86.4006  31.4198 0002322  83.8432 276.3028 14.34214486298580
IRIDIUM 156             
1 43576U 18061H   24097.54692825  .00000287  00000+0  95295-4 0  9994
2 43576  86.4010  31.7272 0002298  81.4581 278.6875 14.34217555298476
IRIDIUM 164             
1 43577U 18061J   24098.29535180  .00000139  00000+0  42538-4 0  9996
2 43577  86.4012  31.4427 0002023  82.5507 277.5918 14.34217251298620
